IRIDIUM 36 [-]          
1 24967U 97056C   23349.55423116  .00000385  00000+0  12450-3 0  9993
2 24967  86.3976  43.7688 0002137  89.6284 270.5158 14.36546492373280
IRIDIUM 39 [-]          
1 25042U 97069D   23349.33118855  .00000670  00000+0  17644-3 0  9996
2 25042  86.3917  86.6568 0017624 347.4939  12.5825 14.47562444369379
IRIDIUM 38 [-]          
1 25043U 97069E   23349.41129164  .00000472  00000+0  15275-3 0  9999
2 25043  86.3958 104.3090 0003951 107.2801 252.8829 14.37008511366976
IRIDIUM 42 [-]          
1 25077U 97077A   23349.38509442  .00000409  00000+0  13586-3 0  9995
2 25077  86.3962 109.8209 0002685  97.4759 262.6743 14.35307873362303
IRIDIUM 44 [-]          
1 25078U 97077B   23349.34943620  .00000507  00000+0  15760-3 0  9997
2 25078  86.3956  93.2322 0003449  67.1811 292.9752 14.39117061364592
IRIDIUM 45 [-]          
1 25104U 97082A   23349.39066726  .00005478  00000+0  34140-3 0  9996
2 25104  86.3753 308.6154 0174264 187.9512 171.8953 14.97455625369156
IRIDIUM 24 [-]          
1 25105U 97082B   23349.45661721  .00000558  00000+0  16762-3 0  9994
2 25105  86.3898 313.0955 0013825  92.1442 268.1341 14.40877643364028
IRIDIUM 51 [-]          
1 25262U 98018A   23349.41198381  .00007021  00000+0  37237-3 0  9993
2 25262  86.3938 318.9675 0162315 140.2192 221.1079 15.04383454363575
